{
    "links": {
        "self": "http://www.neowsapp.com/rest/v1/neo/3673978?api_key=iIulBulltgU6a56xZRHN4H3l9WmuAYTsLGpBGhQ2"
    },
    "id": "3673978",
    "neo_reference_id": "3673978",
    "name": "(2014 MX17)",
    "designation": "2014 MX17",
    "nasa_jpl_url": "http://ssd.jpl.nasa.gov/sbdb.cgi?sstr=3673978",
    "absolute_magnitude_h": 20.5,
    "estimated_diameter": {
        "kilometers": {
            "estimated_diameter_min": 0.2111324448,
            "estimated_diameter_max": 0.4721064988
        },
        "meters": {
            "estimated_diameter_min": 211.1324447897,
            "estimated_diameter_max": 472.1064988055
        },
        "miles": {
            "estimated_diameter_min": 0.1311915784,
            "estimated_diameter_max": 0.2933532873
        },
        "feet": {
            "estimated_diameter_min": 692.6917701639,
            "estimated_diameter_max": 1548.9058855411
        }
    },
    "is_potentially_hazardous_asteroid": false,
    "close_approach_data": [
        {
            "close_approach_date": "2014-06-28",
            "close_approach_date_full": "2014-Jun-28 16:55",
            "epoch_date_close_approach": 1403974500000,
            "relative_velocity": {
                "kilometers_per_second": "23.940979856",
                "kilometers_per_hour": "86187.5274817472",
                "miles_per_hour": "53553.5778399779"
            },
            "miss_distance": {
                "astronomical": "0.1658003923",
                "lunar": "64.4963526047",
                "kilometers": "24803385.533244401",
                "miles": "15412109.1013626938"
            },
            "orbiting_body": "Earth"
        }
    ],
    "orbital_data": {
        "orbit_id": "21",
        "orbit_determination_date": "2017-04-06 08:39:58",
        "first_observation_date": "2014-06-24",
        "last_observation_date": "2014-08-15",
        "data_arc_in_days": 52,
        "observations_used": 95,
        "orbit_uncertainty": "7",
        "minimum_orbit_intersection": ".145471",
        "jupiter_tisserand_invariant": "3.063",
        "epoch_osculation": "2459000.5",
        "eccentricity": ".5091827754871832",
        "semi_major_axis": "2.34698973325773",
        "inclination": "42.94693702682349",
        "ascending_node_longitude": "278.2948890549218",
        "orbital_period": "1313.303832375494",
        "perihelion_distance": "1.151942986837636",
        "perihelion_argument": "13.61916756007321",
        "aphelion_distance": "3.542036479677825",
        "perihelion_time": "2459473.809856821255",
        "mean_anomaly": "230.2573279273473",
        "mean_motion": ".2741178325420972",
        "equinox": "J2000",
        "orbit_class": {
            "orbit_class_type": "AMO",
            "orbit_class_description": "Near-Earth asteroid orbits similar to that of 1221 Amor",
            "orbit_class_range": "1.017 AU < q (perihelion) < 1.3 AU"
        }
    },
    "is_sentry_object": false
}